NORAD_CAT_ID,OBJECT_NAME,OBJECT_TYPE,EPOCH,MEAN_MOTION,ECCENTRICITY,INCLINATION,RA_OF_ASC_NODE,ARG_OF_PERICENTER,MEAN_ANOMALY,BSTAR,MEAN_MOTION_DOT,MEAN_MOTION_DDOT,TLE_LINE0,TLE_LINE1,TLE_LINE2,SEMIMAJOR_AXIS,PERIOD,APOGEE,PERIGEE,DECAYED
56496.0,STARLINK-5526,PAYLOAD,2024-08-16 01:59:30,14.98341711,0.000314,69.9997,103.0593,279.6584,80.4221,0.00053042,6.243e-05,0.0,0 STARLINK-5526,1 56496U 23064BA  24229.08299393  .00006243  00000-0  53042-3 0  9999,2 56496  69.9997 103.0593 0003140 279.6584  80.4221 14.98341711 71128,6950.157,96.106,574.204,569.839,0.0
56496.0,STARLINK-5526,PAYLOAD,2024-08-16 21:13:07,14.98341645,0.0003417,69.9994,101.0399,291.8999,68.1797,4.8385e-05,4.84e-06,0.0,0 STARLINK-5526,1 56496U 23064BA  24229.88411996  .00000484  00000-0  48385-4 0  9998,2 56496  69.9994 101.0399 0003417 291.8999  68.1797 14.98341645 71240,6950.157,96.106,574.397,569.647,0.0
56496.0,STARLINK-5526,PAYLOAD,2024-08-17 02:01:31,14.98346111,0.0003181,69.9993,100.5343,275.13,84.9496,8.2126e-05,8.87e-06,0.0,0 STARLINK-5526,1 56496U 23064BA  24230.08439306  .00000887  00000-0  82126-4 0  9995,2 56496  69.9993 100.5343 0003181 275.1300  84.9496 14.98346111 71279,6950.143,96.106,574.219,569.797,0.0
56496.0,STARLINK-5526,PAYLOAD,2024-08-18 02:03:32,14.98338684,0.000302,69.9997,98.0101,276.4584,83.6231,-0.00010216,-1.312e-05,0.0,0 STARLINK-5526,1 56496U 23064BA  24231.08579364 -.00001312  00000-0 -10216-3 0  9991,2 56496  69.9997  98.0101 0003020 276.4584  83.6231 14.98338684 71422,6950.166,96.106,574.13,569.932,0.0
56496.0,STARLINK-5526,PAYLOAD,2024-08-18 21:17:08,14.98334283,0.0003223,69.9992,95.988,268.8873,91.1917,0.00011018,1.222e-05,0.0,0 STARLINK-5526,1 56496U 23064BA  24231.88690815  .00001222  00000-0  11018-3 0  9993,2 56496  69.9992  95.9880 0003223 268.8873  91.1917 14.98334283 71187,6950.18,96.107,574.285,569.805,0.0
56496.0,STARLINK-5526,PAYLOAD,2024-08-19 08:30:05,14.98332416,0.0003089,69.9995,94.81,270.5968,89.4837,7.8786e-05,8.47e-06,0.0,0 STARLINK-5526,1 56496U 23064BA  24232.35422930  .00000847  00000-0  78786-4 0  9995,2 56496  69.9995  94.8100 0003089 270.5968  89.4837 14.98332416 71613,6950.185,96.107,574.197,569.904,0.0
56496.0,STARLINK-5526,PAYLOAD,2024-08-20 00:31:26,14.98327336,0.0003109,69.9994,93.1274,271.298,88.7823,4.0281e-05,3.88e-06,0.0,0 STARLINK-5526,1 56496U 23064BA  24233.02183449  .00000388  00000-0  40281-4 0  9998,2 56496  69.9994  93.1274 0003109 271.2980  88.7823 14.98327336 71714,6950.201,96.107,574.227,569.905,0.0
56496.0,STARLINK-5526,PAYLOAD,2024-08-20 14:56:38,14.98335952,0.0003095,69.9994,91.6121,270.3573,89.7231,6.8417e-05,7.24e-06,0.0,0 STARLINK-5526,1 56496U 23064BA  24233.62266806  .00000724  00000-0  68417-4 0  9998,2 56496  69.9994  91.6121 0003095 270.3573  89.7231 14.98335952 71447,6950.174,96.107,574.191,569.888,0.0
56496.0,STARLINK-5526,PAYLOAD,2024-08-20 21:21:10,14.98336745,0.0003099,69.9993,90.9389,270.5643,89.5161,7.163e-05,7.62e-06,0.0,0 STARLINK-5526,1 56496U 23064BA  24233.88970663  .00000762  00000-0  71630-4 0  9992,2 56496  69.9993  90.9389 0003099 270.5643  89.5161 14.98336745 71843,6950.172,96.107,574.191,569.883,0.0
56496.0,STARLINK-5526,PAYLOAD,2024-08-21 14:58:39,14.98326495,0.0002956,69.9993,89.0882,273.3551,86.727,6.6253e-05,6.98e-06,0.0,0 STARLINK-5526,1 56496U 23064BA  24234.62407327  .00000698  00000-0  66253-4 0  9990,2 56496  69.9993  89.0882 0002956 273.3551  86.7270 14.98326495 71593,6950.204,96.107,574.123,570.014,0.0
56496.0,STARLINK-5526,PAYLOAD,2024-08-21 21:23:12,14.98328626,0.0002971,69.9993,88.4144,272.7498,87.3321,3.8627e-05,3.68e-06,0.0,0 STARLINK-5526,1 56496U 23064BA  24234.89111302  .00000368  00000-0  38627-4 0  9992,2 56496  69.9993  88.4144 0002971 272.7498  87.3321 14.98328626 71993,6950.197,96.107,574.127,569.997,0.0
